{
  "type": "FeatureCollection",
  "features": [
    {
      "type": "Feature",
      "properties": {
        "norad_id": 43057,
        "name": "GSAT0217 (GALILEO 21)",
        "group": "gnss",
        "lat": 9.926272968424417,
        "lon": 39.403801623431654,
        "alt_km": 23229.410412851437,
        "timestamp": "2025-12-21T11:31:43.097836+00:00",
        "meta_object_name": "GSAT0217 (GALILEO 21)",
        "meta_object_id": "2017-079C",
        "meta_epoch": "2025-12-18T06:34:31.891008",
        "meta_mean_motion": 1.70474093,
        "meta_eccentricity": 0.0002798,
        "meta_inclination": 55.1266,
        "meta_ra_of_asc_node": 226.4833,
        "meta_arg_of_pericenter": 348.1017,
        "meta_mean_anomaly": 11.9971,
        "meta_ephemeris_type": 0,
        "meta_classification_type": "U",
        "meta_norad_cat_id": 43057,
        "meta_element_set_no": 999,
        "meta_rev_at_epoch": 4990,
        "meta_bstar": 0,
        "meta_mean_motion_dot": 6.1e-07,
        "meta_mean_motion_ddot": 0,
        "tle_line1": "1 43057U 17079C   25352.27398022  .00000061  00000+0  00000+0 0  9998",
        "tle_line2": "2 43057  55.1266 226.4833 0002798 348.1017  11.9971  1.70474093 49909"
      },
      "geometry": {
        "type": "Point",
        "coordinates": [
          39.403801623431654,
          9.926272968424417
        ]
      }
    },
    {
      "type": "Feature",
      "properties": {
        "norad_id": 43058,
        "name": "GSAT0218 (GALILEO 22)",
        "group": "gnss",
        "lat": 26.381488260684613,
        "lon": -113.3634408399915,
        "alt_km": 23218.230599749404,
        "timestamp": "2025-12-21T11:31:43.097847+00:00",
        "meta_object_name": "GSAT0218 (GALILEO 22)",
        "meta_object_id": "2017-079D",
        "meta_epoch": "2025-12-20T06:05:26.226528",
        "meta_mean_motion": 1.70474115,
        "meta_eccentricity": 0.00027735,
        "meta_inclination": 55.1262,
        "meta_ra_of_asc_node": 226.4264,
        "meta_arg_of_pericenter": 307.8467,
        "meta_mean_anomaly": 52.2377,
        "meta_ephemeris_type": 0,
        "meta_classification_type": "U",
        "meta_norad_cat_id": 43058,
        "meta_element_set_no": 999,
        "meta_rev_at_epoch": 4996,
        "meta_bstar": 0,
        "meta_mean_motion_dot": 7e-07,
        "meta_mean_motion_ddot": 0,
        "tle_line1": "1 43058U 17079D   25354.25377577  .00000070  00000+0  00000+0 0  9991",
        "tle_line2": "2 43058  55.1262 226.4264 0002773 307.8467  52.2377  1.70474115 49967"
      },
      "geometry": {
        "type": "Point",
        "coordinates": [
          -113.3634408399915,
          26.381488260684613
        ]
      }
    },
    {
      "type": "Feature",
      "properties": {
        "norad_id": 43107,
        "name": "BEIDOU-3 M7 (C27)",
        "group": "gnss",
        "lat": -54.390443971533266,
        "lon": -146.63089743346745,
        "alt_km": 21541.50849523455,
        "timestamp": "2025-12-21T11:31:43.097859+00:00",
        "meta_object_name": "BEIDOU-3 M7 (C27)",
        "meta_object_id": "2018-003A",
        "meta_epoch": "2025-12-21T01:58:18.376032",
        "meta_mean_motion": 1.86232609,
        "meta_eccentricity": 0.0002969,
        "meta_inclination": 54.4892,
        "meta_ra_of_asc_node": 308.5243,
        "meta_arg_of_pericenter": 67.3081,
        "meta_mean_anomaly": 292.7179,
        "meta_ephemeris_type": 0,
        "meta_classification_type": "U",
        "meta_norad_cat_id": 43107,
        "meta_element_set_no": 999,
        "meta_rev_at_epoch": 5403,
        "meta_bstar": 0,
        "meta_mean_motion_dot": -6.5e-07,
        "meta_mean_motion_ddot": 0,
        "tle_line1": "1 43107U 18003A   25355.08215713 -.00000065  00000+0  00000+0 0  9994",
        "tle_line2": "2 43107  54.4892 308.5243 0002969  67.3081 292.7179  1.86232609 54031"
      },
      "geometry": {
        "type": "Point",
        "coordinates": [
          -146.63089743346745,
          -54.390443971533266
        ]
      }
    },
    {
      "type": "Feature",
      "properties": {
        "norad_id": 43108,
        "name": "BEIDOU-3 M8 (C28)",
        "group": "gnss",
        "lat": -42.534643961389186,
        "lon": -92.41921156856701,
        "alt_km": 21521.424091655543,
        "timestamp": "2025-12-21T11:31:43.097871+00:00",
        "meta_object_name": "BEIDOU-3 M8 (C28)",
        "meta_object_id": "2018-003B",
        "meta_epoch": "2025-12-21T00:39:03.538656",
        "meta_mean_motion": 1.86231141,
        "meta_eccentricity": 0.0004605,
        "meta_inclination": 54.4823,
        "meta_ra_of_asc_node": 308.5092,
        "meta_arg_of_pericenter": 277.8546,
        "meta_mean_anomaly": 82.0875,
        "meta_ephemeris_type": 0,
        "meta_classification_type": "U",
        "meta_norad_cat_id": 43108,
        "meta_element_set_no": 999,
        "meta_rev_at_epoch": 5404,
        "meta_bstar": 0,
        "meta_mean_motion_dot": -6.6e-07,
        "meta_mean_motion_ddot": 0,
        "tle_line1": "1 43108U 18003B   25355.02712429 -.00000066  00000+0  00000+0 0  9996",
        "tle_line2": "2 43108  54.4823 308.5092 0004605 277.8546  82.0875  1.86231141 54045"
      },
      "geometry": {
        "type": "Point",
        "coordinates": [
          -92.41921156856701,
          -42.534643961389186
        ]
      }
    },
    {
      "type": "Feature",
      "properties": {
        "norad_id": 43207,
        "name": "BEIDOU-3 M4 (C22)",
        "group": "gnss",
        "lat": 6.27478923191836,
        "lon": 73.20509655283188,
        "alt_km": 21515.906477273726,
        "timestamp": "2025-12-21T11:31:43.097882+00:00",
        "meta_object_name": "BEIDOU-3 M4 (C22)",
        "meta_object_id": "2018-018A",
        "meta_epoch": "2025-12-20T09:29:07.105632",
        "meta_mean_motion": 1.86231247,
        "meta_eccentricity": 0.0004167,
        "meta_inclination": 56.4917,
        "meta_ra_of_asc_node": 69.0512,
        "meta_arg_of_pericenter": 3.4046,
        "meta_mean_anomaly": 356.639,
        "meta_ephemeris_type": 0,
        "meta_classification_type": "U",
        "meta_norad_cat_id": 43207,
        "meta_element_set_no": 999,
        "meta_rev_at_epoch": 5341,
        "meta_bstar": 0,
        "meta_mean_motion_dot": -4.3e-07,
        "meta_mean_motion_ddot": 0,
        "tle_line1": "1 43207U 18018A   25354.39522113 -.00000043  00000+0  00000+0 0  9995",
        "tle_line2": "2 43207  56.4917  69.0512 0004167   3.4046 356.6390  1.86231247 53417"
      },
      "geometry": {
        "type": "Point",
        "coordinates": [
          73.20509655283188,
          6.27478923191836
        ]
      }
    },
    {
      "type": "Feature",
      "properties": {
        "norad_id": 43208,
        "name": "BEIDOU-3 M3 (C21)",
        "group": "gnss",
        "lat": -30.20904396876974,
        "lon": 46.384640171819115,
        "alt_km": 21512.574085205157,
        "timestamp": "2025-12-21T11:31:43.097896+00:00",
        "meta_object_name": "BEIDOU-3 M3 (C21)",
        "meta_object_id": "2018-018B",
        "meta_epoch": "2025-12-19T09:18:26.987040",
        "meta_mean_motion": 1.8623146,
        "meta_eccentricity": 0.0007021,
        "meta_inclination": 56.4904,
        "meta_ra_of_asc_node": 69.0885,
        "meta_arg_of_pericenter": 313.7803,
        "meta_mean_anomaly": 46.1968,
        "meta_ephemeris_type": 0,
        "meta_classification_type": "U",
        "meta_norad_cat_id": 43208,
        "meta_element_set_no": 999,
        "meta_rev_at_epoch": 5339,
        "meta_bstar": 0,
        "meta_mean_motion_dot": -5.3e-07,
        "meta_mean_motion_ddot": 0,
        "tle_line1": "1 43208U 18018B   25353.38781235 -.00000053  00000+0  00000+0 0  9997",
        "tle_line2": "2 43208  56.4904  69.0885 0007021 313.7803  46.1968  1.86231460 53393"
      },
      "geometry": {
        "type": "Point",
        "coordinates": [
          46.384640171819115,
          -30.20904396876974
        ]
      }
    },
    {
      "type": "Feature",
      "properties": {
        "norad_id": 43245,
        "name": "BEIDOU-3 M9 (C29)",
        "group": "gnss",
        "lat": 1.6536567740738621,
        "lon": 124.95485488723529,
        "alt_km": 21530.02401345572,
        "timestamp": "2025-12-21T11:31:43.097908+00:00",
        "meta_object_name": "BEIDOU-3 M9 (C29)",
        "meta_object_id": "2018-029A",
        "meta_epoch": "2025-12-19T14:29:50.131680",
        "meta_mean_motion": 1.86228397,
        "meta_eccentricity": 0.00015252,
        "meta_inclination": 54.3596,
        "meta_ra_of_asc_node": 306.2287,
        "meta_arg_of_pericenter": 290.8433,
        "meta_mean_anomaly": 69.1316,
        "meta_ephemeris_type": 0,
        "meta_classification_type": "U",
        "meta_norad_cat_id": 43245,
        "meta_element_set_no": 999,
        "meta_rev_at_epoch": 5255,
        "meta_bstar": 0,
        "meta_mean_motion_dot": -7.4e-07,
        "meta_mean_motion_ddot": 0,
        "tle_line1": "1 43245U 18029A   25353.60405245 -.00000074  00000+0  00000+0 0  9992",
        "tle_line2": "2 43245  54.3596 306.2287 0001525 290.8433  69.1316  1.86228397 52551"
      },
      "geometry": {
        "type": "Point",
        "coordinates": [
          124.95485488723529,
          1.6536567740738621
        ]
      }
    }
  ]
}